start=new Date('2023-06-21T00:00:00.000Z').valueOf();
sats=[{"MEAN_ELEMENT_THEORY":"SGP4","RCS_SIZE":"LARGE","REV_AT_EPOCH":"4873","OBJECT_NAME":"STARLINK-4532","REF_FRAME":"TEME","CENTER_NAME":"EARTH","OBJECT_ID":"2022-097AN","ELEMENT_SET_NO":"999","EPHEMERIS_TYPE":"0","APOAPSIS":"540.177","PERIAPSIS":"539.229","SEMIMAJOR_AXIS":"6917.838","GP_ID":"234394844","NORAD_CAT_ID":"53424","CLASSIFICATION_TYPE":"U","DECAY_DATE":null,"ECCENTRICITY":"0.00006850","INCLINATION":"53.2156","SITE":"AFETR","TLE_LINE1":"1 53424U 22097AN  23171.65319004  .00015135  00000-0  96658-3 0  9992","RA_OF_ASC_NODE":"252.0368","FILE":"3938544","PERIOD":"95.437","COUNTRY_CODE":"US","TLE_LINE2":"2 53424  53.2156 252.0368 0000685  86.5816 273.5254 15.08853882 48739","MEAN_MOTION_DDOT":"0.0000000000000","MEAN_ANOMALY":"273.5254","LAUNCH_DATE":"2022-08-10","ARG_OF_PERICENTER":"86.5816","EPOCH":"2023-06-20T15:40:35.619456","MEAN_MOTION":"15.08853882","BSTAR":"0.00096658000000","OBJECT_TYPE":"PAYLOAD","TIME_SYSTEM":"UTC","MEAN_MOTION_DOT":"0.00015135"},{"INCLINATION":"53.2153","SITE":"AFETR","DECAY_DATE":null,"CLASSIFICATION_TYPE":"U","ECCENTRICITY":"0.00009940","OBJECT_ID":"2022-097AP","CENTER_NAME":"EARTH","ELEMENT_SET_NO":"999","EPHEMERIS_TYPE":"0","PERIAPSIS":"538.946","APOAPSIS":"540.321","GP_ID":"234360111","NORAD_CAT_ID":"53425","SEMIMAJOR_AXIS":"6917.769","MEAN_ELEMENT_THEORY":"SGP4","RCS_SIZE":"LARGE","REV_AT_EPOCH":"4868","REF_FRAME":"TEME","OBJECT_NAME":"STARLINK-4531","MEAN_MOTION":"15.08876505","OBJECT_TYPE":"PAYLOAD","BSTAR":"0.00097894000000","MEAN_MOTION_DOT":"0.00015342","TIME_SYSTEM":"UTC","MEAN_ANOMALY":"270.4181","LAUNCH_DATE":"2022-08-10","EPOCH":"2023-06-20T12:45:43.814304","ARG_OF_PERICENTER":"89.6925","MEAN_MOTION_DDOT":"0.0000000000000","FILE":"3938135","RA_OF_ASC_NODE":"252.5802","TLE_LINE1":"1 53425U 22097AP  23171.53175711  .00015342  00000-0  97894-3 0  9998","COUNTRY_CODE":"US","PERIOD":"95.435","TLE_LINE2":"2 53425  53.2153 252.5802 0000994  89.6925 270.4181 15.08876505 48689"},{"COUNTRY_CODE":"US","PERIOD":"95.438","TLE_LINE2":"2 53426  53.2157 242.8820 0000880  99.0783 261.0309 15.08838064 48841","FILE":"3938135","RA_OF_ASC_NODE":"242.8820","TLE_LINE1":"1 53426U 22097AQ  23171.49957089 -.00000315  00000-0 -17453-5 0  9991","MEAN_MOTION_DDOT":"0.0000000000000","LAUNCH_DATE":"2022-08-10","ARG_OF_PERICENTER":"99.0783","EPOCH":"2023-06-20T11:59:22.924896","MEAN_ANOMALY":"261.0309","BSTAR":"-0.00000174530000","OBJECT_TYPE":"PAYLOAD","TIME_SYSTEM":"UTC","MEAN_MOTION_DOT":"-0.00000315","MEAN_MOTION":"15.08838064","REV_AT_EPOCH":"4884","OBJECT_NAME":"STARLINK-4558","REF_FRAME":"TEME","MEAN_ELEMENT_THEORY":"SGP4","RCS_SIZE":"LARGE","PERIAPSIS":"539.143","APOAPSIS":"540.360","GP_ID":"234360861","SEMIMAJOR_AXIS":"6917.886","NORAD_CAT_ID":"53426","OBJECT_ID":"2022-097AQ","CENTER_NAME":"EARTH","EPHEMERIS_TYPE":"0","ELEMENT_SET_NO":"999","ECCENTRICITY":"0.00008800","DECAY_DATE":null,"CLASSIFICATION_TYPE":"U","INCLINATION":"53.2157","SITE":"AFETR"},{"RCS_SIZE":"LARGE","MEAN_ELEMENT_THEORY":"SGP4","REF_FRAME":"TEME","OBJECT_NAME":"STARLINK-4541","REV_AT_EPOCH":"4823","ELEMENT_SET_NO":"999","EPHEMERIS_TYPE":"0","CENTER_NAME":"EARTH","OBJECT_ID":"2022-097AR","GP_ID":"234370748","NORAD_CAT_ID":"53427","SEMIMAJOR_AXIS":"6917.892","APOAPSIS":"540.519","PERIAPSIS":"538.996","CLASSIFICATION_TYPE":"U","DECAY_DATE":null,"ECCENTRICITY":"0.00011010","SITE":"AFETR","INCLINATION":"53.2165","TLE_LINE1":"1 53427U 22097AR  23171.52439390 -.00001360  00000-0 -67408-4 0  9991","RA_OF_ASC_NODE":"252.6142","FILE":"3938507","TLE_LINE2":"2 53427  53.2165 252.6142 0001101  93.2677 266.8441 15.08836116 48231","PERIOD":"95.438","COUNTRY_CODE":"US","MEAN_MOTION_DDOT":"0.0000000000000","MEAN_ANOMALY":"266.8441","ARG_OF_PERICENTER":"93.2677","EPOCH":"2023-06-20T12:35:07.632960","LAUNCH_DATE":"2022-08-10","MEAN_MOTION":"15.08836116","TIME_SYSTEM":"UTC","MEAN_MOTION_DOT":"-0.00001360","BSTAR":"-0.00006740800000","OBJECT_TYPE":"PAYLOAD"},{"INCLINATION":"53.2163","SITE":"AFETR","ECCENTRICITY":"0.00011770","CLASSIFICATION_TYPE":"U","DECAY_DATE":null,"APOAPSIS":"540.546","PERIAPSIS":"538.918","NORAD_CAT_ID":"53428","GP_ID":"234361347","SEMIMAJOR_AXIS":"6917.867","CENTER_NAME":"EARTH","OBJECT_ID":"2022-097AS","EPHEMERIS_TYPE":"0","ELEMENT_SET_NO":"999","REV_AT_EPOCH":"4884","REF_FRAME":"TEME","OBJECT_NAME":"STARLINK-4540","MEAN_ELEMENT_THEORY":"SGP4","RCS_SIZE":"LARGE","BSTAR":"0.00004933800000","OBJECT_TYPE":"PAYLOAD","MEAN_MOTION_DOT":"0.00000498","TIME_SYSTEM":"UTC","MEAN_MOTION":"15.08844416","LAUNCH_DATE":"2022-08-10","EPOCH":"2023-06-20T11:48:45.999648","ARG_OF_PERICENTER":"88.9015","MEAN_ANOMALY":"271.2112","MEAN_MOTION_DDOT":"0.0000000000000","PERIOD":"95.437","COUNTRY_CODE":"US","TLE_LINE2":"2 53428  53.2163 242.8371 0001177  88.9015 271.2112 15.08844416 48849","RA_OF_ASC_NODE":"242.8371","TLE_LINE1":"1 53428U 22097AS  23171.49219907  .00000498  00000-0  49338-4 0  9999","FILE":"3938135"},{"MEAN_MOTION":"15.08842157","MEAN_MOTION_DOT":"0.00000277","TIME_SYSTEM":"UTC","OBJECT_TYPE":"PAYLOAD","BSTAR":"0.00003550400000","MEAN_ANOMALY":"262.5181","ARG_OF_PERICENTER":"97.5933","EPOCH":"2023-06-20T16:40:14.237472","LAUNCH_DATE":"2022-08-10","MEAN_MOTION_DDOT":"0.0000000000000","FILE":"3938544","RA_OF_ASC_NODE":"241.9654","TLE_LINE1":"1 53429U 22097AT  23171.69460923  .00000277  00000-0  35504-4 0  9993","TLE_LINE2":"2 53429  53.2169 241.9654 0001074  97.5933 262.5181 15.08842157 48873","COUNTRY_CODE":"US","PERIOD":"95.437","SITE":"AFETR","INCLINATION":"53.2169","DECAY_DATE":null,"CLASSIFICATION_TYPE":"U","ECCENTRICITY":"0.00010740","ELEMENT_SET_NO":"999","EPHEMERIS_TYPE":"0","OBJECT_ID":"2022-097AT","CENTER_NAME":"EARTH","GP_ID":"234393596","NORAD_CAT_ID":"53429","SEMIMAJOR_AXIS":"6917.874","PERIAPSIS":"538.996","APOAPSIS":"540.482","RCS_SIZE":"LARGE","MEAN_ELEMENT_THEORY":"SGP4","REF_FRAME":"TEME","OBJECT_NAME":"STARLINK-4543","REV_AT_EPOCH":"4887"},{"ELEMENT_SET_NO":"999","EPHEMERIS_TYPE":"0","CENTER_NAME":"EARTH","OBJECT_ID":"2022-097AU","GP_ID":"234360361","NORAD_CAT_ID":"53430","SEMIMAJOR_AXIS":"6917.872","APOAPSIS":"540.516","PERIAPSIS":"538.957","RCS_SIZE":"LARGE","MEAN_ELEMENT_THEORY":"SGP4","REF_FRAME":"TEME","OBJECT_NAME":"STARLINK-4538","REV_AT_EPOCH":"4882","SITE":"AFETR","INCLINATION":"53.2156","CLASSIFICATION_TYPE":"U","DECAY_DATE":null,"ECCENTRICITY":"0.00011270","MEAN_MOTION_DDOT":"0.0000000000000","RA_OF_ASC_NODE":"242.8118","TLE_LINE1":"1 53430U 22097AU  23171.48851533  .00000928  00000-0  76375-4 0  9997","FILE":"3938135","TLE_LINE2":"2 53430  53.2156 242.8118 0001127  63.9173 296.1935 15.08842823 48823","PERIOD":"95.437","COUNTRY_CODE":"US","MEAN_MOTION":"15.08842823","MEAN_MOTION_DOT":"0.00000928","TIME_SYSTEM":"UTC","OBJECT_TYPE":"PAYLOAD","BSTAR":"0.00007637500000","MEAN_ANOMALY":"296.1935","ARG_OF_PERICENTER":"63.9173","EPOCH":"2023-06-20T11:43:27.724512","LAUNCH_DATE":"2022-08-10"},{"TLE_LINE2":"2 53431  53.2139 240.4683 0001106  92.4108 294.9387 15.08837598  1300","COUNTRY_CODE":"US","PERIOD":"95.438","FILE":"3938544","TLE_LINE1":"1 53431U 22097AV  23171.91667824 -.00004608  00000-0 -27166-3 0  9998","RA_OF_ASC_NODE":"240.4683","MEAN_MOTION_DDOT":"0.0000000000000","ARG_OF_PERICENTER":"92.4108","EPOCH":"2023-06-20T22:00:00.999936","LAUNCH_DATE":"2022-08-10","MEAN_ANOMALY":"294.9387","MEAN_MOTION_DOT":"-0.00004608","TIME_SYSTEM":"UTC","BSTAR":"-0.00027166000000","OBJECT_TYPE":"PAYLOAD","MEAN_MOTION":"15.08837598","OBJECT_NAME":"STARLINK-4548","REF_FRAME":"TEME","REV_AT_EPOCH":"130","RCS_SIZE":"LARGE","MEAN_ELEMENT_THEORY":"SGP4","GP_ID":"234394597","NORAD_CAT_ID":"53431","SEMIMAJOR_AXIS":"6917.888","PERIAPSIS":"538.988","APOAPSIS":"540.518","EPHEMERIS_TYPE":"0","ELEMENT_SET_NO":"999","OBJECT_ID":"2022-097AV","CENTER_NAME":"EARTH","ECCENTRICITY":"0.00011060","DECAY_DATE":null,"CLASSIFICATION_TYPE":"U","SITE":"AFETR","INCLINATION":"53.2139"},{"APOAPSIS":"540.398","PERIAPSIS":"539.134","GP_ID":"234370414","NORAD_CAT_ID":"53432","SEMIMAJOR_AXIS":"6917.901","CENTER_NAME":"EARTH","OBJECT_ID":"2022-097AW","ELEMENT_SET_NO":"999","EPHEMERIS_TYPE":"0","REV_AT_EPOCH":"4836","OBJECT_NAME":"STARLINK-4557","REF_FRAME":"TEME","MEAN_ELEMENT_THEORY":"SGP4","RCS_SIZE":"LARGE","INCLINATION":"53.2141","SITE":"AFETR","ECCENTRICITY":"0.00009140","CLASSIFICATION_TYPE":"U","DECAY_DATE":null,"MEAN_MOTION_DDOT":"0.0000000000000","PERIOD":"95.438","COUNTRY_CODE":"US","TLE_LINE2":"2 53432  53.2141 242.6492 0000914  84.0511 276.0585 15.08833247 48362","RA_OF_ASC_NODE":"242.6492","TLE_LINE1":"1 53432U 22097AW  23171.46272511  .00010693  00000-0  68902-3 0  9996","FILE":"3938508","BSTAR":"0.00068902000000","OBJECT_TYPE":"PAYLOAD","MEAN_MOTION_DOT":"0.00010693","TIME_SYSTEM":"UTC","MEAN_MOTION":"15.08833247","LAUNCH_DATE":"2022-08-10","ARG_OF_PERICENTER":"84.0511","EPOCH":"2023-06-20T11:06:19.449504","MEAN_ANOMALY":"276.0585"},{"GP_ID":"234360112","SEMIMAJOR_AXIS":"6917.898","NORAD_CAT_ID":"53433","APOAPSIS":"540.625","PERIAPSIS":"538.902","ELEMENT_SET_NO":"999","EPHEMERIS_TYPE":"0","CENTER_NAME":"EARTH","OBJECT_ID":"2022-097AX","OBJECT_NAME":"STARLINK-4549","REF_FRAME":"TEME","REV_AT_EPOCH":"4878","RCS_SIZE":"LARGE","MEAN_ELEMENT_THEORY":"SGP4","SITE":"AFETR","INCLINATION":"53.2155","ECCENTRICITY":"0.00012450","CLASSIFICATION_TYPE":"U","DECAY_DATE":null,"MEAN_MOTION_DDOT":"0.0000000000000","TLE_LINE2":"2 53433  53.2155 243.9780 0001245  85.6717 274.4418 15.08834125 48784","PERIOD":"95.438","COUNTRY_CODE":"US","TLE_LINE1":"1 53433U 22097AX  23171.21987394  .00002498  00000-0  17503-3 0  9997","RA_OF_ASC_NODE":"243.9780","FILE":"3938135","TIME_SYSTEM":"UTC","MEAN_MOTION_DOT":"0.00002498","BSTAR":"0.00017503000000","OBJECT_TYPE":"PAYLOAD","MEAN_MOTION":"15.08834125","EPOCH":"2023-06-20T05:16:37.108416","ARG_OF_PERICENTER":"85.6717","LAUNCH_DATE":"2022-08-10","MEAN_ANOMALY":"274.4418"}];
